{"type": "FeatureCollection", "features": [ {"type": "Feature", "properties": {"norad_id": 35287, "name": "COSMOS 2251 DEB", "group": "cosmos-2251-debris", "lat": 32.91182229720381, "lon": 82.25970781343577, "alt_km": 777.2164709435183, "timestamp": "2025-12-14T11:29:50.456305+00:00", "meta": {"OBJECT_NAME": "COSMOS 2251 DEB", "OBJECT_ID": "1993-036AJR", "EPOCH": "2025-12-13T13:54:56.079936", "MEAN_MOTION": 14.36377385, "ECCENTRICITY": 0.0017611, "INCLINATION": 74.0306, "RA_OF_ASC_NODE": 274.592, "ARG_OF_PERICENTER": 11.0911, "MEAN_ANOMALY": 166.1973, "EPHEMERIS_TYPE": 0, "CLASSIFICATION_TYPE": "U", "NORAD_CAT_ID": 35287, "ELEMENT_SET_NO": 999, "REV_AT_EPOCH": 86904, "BSTAR": 0.00020835611, "MEAN_MOTION_DOT": 5.85e-06, "MEAN_MOTION_DDOT": 0}, "tle": {"line1": "1 35287U 93036AJR 25347.57981574  .00000585  00000+0  20836-3 0  9992", "line2": "2 35287  74.0306 274.5920 0017611  11.0911 166.1973 14.36377385869042"}}, "geometry": {"type": "Point", "coordinates": [82.25970781343577, 32.91182229720381]}}, {"type": "Feature", "properties": {"norad_id": 35288, "name": "COSMOS 2251 DEB", "group": "cosmos-2251-debris", "lat": 58.435207056760596, "lon": 163.86893427189764, "alt_km": 686.3602137811031, "timestamp": "2025-12-14T11:29:50.456314+00:00", "meta": {"OBJECT_NAME": "COSMOS 2251 DEB", "OBJECT_ID": "1993-036AJS", "EPOCH": "2025-12-13T08:44:45.008448", "MEAN_MOTION": 14.65469737, "ECCENTRICITY": 0.00394163, "INCLINATION": 73.9514, "RA_OF_ASC_NODE": 13.9647, "ARG_OF_PERICENTER": 247.3959, "MEAN_ANOMALY": 112.3037, "EPHEMERIS_TYPE": 0, "CLASSIFICATION_TYPE": "U", "NORAD_CAT_ID": 35288, "ELEMENT_SET_NO": 999, "REV_AT_EPOCH": 87887, "BSTAR": 0.0016378254, "MEAN_MOTION_DOT": 8.951e-05, "MEAN_MOTION_DDOT": 0}, "tle": {"line1": "1 35288U 93036AJS 25347.36440982  .00008951  00000+0  16378-2 0  9993", "line2": "2 35288  73.9514  13.9647 0039416 247.3959 112.3037 14.65469737878876"}}, "geometry": {"type": "Point", "coordinates": [163.86893427189764, 58.435207056760596]}}, {"type": "Feature", "properties": {"norad_id": 35290, "name": "COSMOS 2251 DEB", "group": "cosmos-2251-debris", "lat": 46.936621592520375, "lon": -141.87375060356578, "alt_km": 622.6868253483453, "timestamp": "2025-12-14T11:29:50.456325+00:00", "meta": {"OBJECT_NAME": "COSMOS 2251 DEB", "OBJECT_ID": "1993-036AJU", "EPOCH": "2025-12-12T15:07:13.855008", "MEAN_MOTION": 14.80385127, "ECCENTRICITY": 0.00022331, "INCLINATION": 74.0052, "RA_OF_ASC_NODE": 59.6495, "ARG_OF_PERICENTER": 198.3357, "MEAN_ANOMALY": 161.7739, "EPHEMERIS_TYPE": 0, "CLASSIFICATION_TYPE": "U", "NORAD_CAT_ID": 35290, "ELEMENT_SET_NO": 999, "REV_AT_EPOCH": 87956, "BSTAR": 0.0028741773, "MEAN_MOTION_DOT": 0.00021986, "MEAN_MOTION_DDOT": 0}, "tle": {"line1": "1 35290U 93036AJU 25346.63002147  .00021986  00000+0  28742-2 0  9993", "line2": "2 35290  74.0052  59.6495 0002233 198.3357 161.7739 14.80385127879561"}}, "geometry": {"type": "Point", "coordinates": [-141.87375060356578, 46.936621592520375]}}, {"type": "Feature", "properties": {"norad_id": 35432, "name": "COSMOS 2251 DEB", "group": "cosmos-2251-debris", "lat": -73.94296620752348, "lon": -83.58486980575115, "alt_km": 499.28463587213537, "timestamp": "2025-12-14T11:29:50.456335+00:00", "meta": {"OBJECT_NAME": "COSMOS 2251 DEB", "OBJECT_ID": "1993-036AKA", "EPOCH": "2025-12-12T01:34:13.254816", "MEAN_MOTION": 15.22745879, "ECCENTRICITY": 0.00122124, "INCLINATION": 74.023, "RA_OF_ASC_NODE": 16.9721, "ARG_OF_PERICENTER": 343.1165, "MEAN_ANOMALY": 16.9626, "EPHEMERIS_TYPE": 0, "CLASSIFICATION_TYPE": "U", "NORAD_CAT_ID": 35432, "ELEMENT_SET_NO": 999, "REV_AT_EPOCH": 87493, "BSTAR": 0.0062046454, "MEAN_MOTION_DOT": 0.00148065, "MEAN_MOTION_DDOT": 0}, "tle": {"line1": "1 35432U 93036AKA 25346.06543119  .00148065  00000+0  62046-2 0  9990", "line2": "2 35432  74.0230  16.9721 0012212 343.1165  16.9626 15.22745879874933"}}, "geometry": {"type": "Point", "coordinates": [-83.58486980575115, -73.94296620752348]}}, {"type": "Feature", "properties": {"norad_id": 35433, "name": "COSMOS 2251 DEB", "group": "cosmos-2251-debris", "lat": -66.80421158744922, "lon": -162.81807039819697, "alt_km": 796.0210915319876, "timestamp": "2025-12-14T11:29:50.456345+00:00", "meta": {"OBJECT_NAME": "COSMOS 2251 DEB", "OBJECT_ID": "1993-036AKB", "EPOCH": "2025-12-10T18:27:52.031808", "MEAN_MOTION": 14.34742553, "ECCENTRICITY": 0.00254013, "INCLINATION": 74.0339, "RA_OF_ASC_NODE": 342.0559, "ARG_OF_PERICENTER": 37.4572, "MEAN_ANOMALY": 142.4072, "EPHEMERIS_TYPE": 0, "CLASSIFICATION_TYPE": "U", "NORAD_CAT_ID": 35433, "ELEMENT_SET_NO": 999, "REV_AT_EPOCH": 86552, "BSTAR": 0.00041847558, "MEAN_MOTION_DOT": 1.164e-05, "MEAN_MOTION_DDOT": 0}, "tle": {"line1": "1 35433U 93036AKB 25344.76935222  .00001164  00000+0  41848-3 0  9992", "line2": "2 35433  74.0339 342.0559 0025401  37.4572 142.4072 14.34742553865528"}}, "geometry": {"type": "Point", "coordinates": [-162.81807039819697, -66.80421158744922]}}, {"type": "Feature", "properties": {"norad_id": 35434, "name": "COSMOS 2251 DEB", "group": "cosmos-2251-debris", "lat": 63.6120891906646, "lon": -4.737427846084023, "alt_km": 861.3987472919125, "timestamp": "2025-12-14T11:29:50.456355+00:00", "meta": {"OBJECT_NAME": "COSMOS 2251 DEB", "OBJECT_ID": "1993-036AKC", "EPOCH": "2025-12-12T23:36:24.163200", "MEAN_MOTION": 14.25688916, "ECCENTRICITY": 0.00874872, "INCLINATION": 74.0404, "RA_OF_ASC_NODE": 213.1853, "ARG_OF_PERICENTER": 283.8698, "MEAN_ANOMALY": 75.2728, "EPHEMERIS_TYPE": 0, "CLASSIFICATION_TYPE": "U", "NORAD_CAT_ID": 35434, "ELEMENT_SET_NO": 999, "REV_AT_EPOCH": 86121, "BSTAR": 0.00087030714, "MEAN_MOTION_DOT": 2.123e-05, "MEAN_MOTION_DDOT": 0}, "tle": {"line1": "1 35434U 93036AKC 25346.98361300  .00002123  00000+0  87031-3 0  9999", "line2": "2 35434  74.0404 213.1853 0087487 283.8698  75.2728 14.25688916861210"}}, "geometry": {"type": "Point", "coordinates": [-4.737427846084023, 63.6120891906646]}}, {"type": "Feature", "properties": {"norad_id": 35435, "name": "COSMOS 2251 DEB", "group": "cosmos-2251-debris", "lat": -73.31362543487448, "lon": 27.581579815522176, "alt_km": 639.9009455665355, "timestamp": "2025-12-14T11:29:50.456364+00:00", "meta": {"OBJECT_NAME": "COSMOS 2251 DEB", "OBJECT_ID": "1993-036AKD", "EPOCH": "2025-12-12T14:28:49.329408", "MEAN_MOTION": 14.7846616, "ECCENTRICITY": 0.00079831, "INCLINATION": 74.0098, "RA_OF_ASC_NODE": 104.3344, "ARG_OF_PERICENTER": 198.3859, "MEAN_ANOMALY": 176.7731, "EPHEMERIS_TYPE": 0, "CLASSIFICATION_TYPE": "U", "NORAD_CAT_ID": 35435, "ELEMENT_SET_NO": 999, "REV_AT_EPOCH": 87537, "BSTAR": 0.0033882672, "MEAN_MOTION_DOT": 0.00024794, "MEAN_MOTION_DDOT": 0}, "tle": {"line1": "1 35435U 93036AKD 25346.60334872  .00024794  00000+0  33883-2 0  9996", "line2": "2 35435  74.0098 104.3344 0007983 198.3859 176.7731 14.78466160875374"}}, "geometry": {"type": "Point", "coordinates": [27.581579815522176, -73.31362543487448]}}, {"type": "Feature", "properties": {"norad_id": 35439, "name": "COSMOS 2251 DEB", "group": "cosmos-2251-debris", "lat": 29.065666571678044, "lon": 140.92618859854517, "alt_km": 912.00666313696, "timestamp": "2025-12-14T11:29:50.456374+00:00", "meta": {"OBJECT_NAME": "COSMOS 2251 DEB", "OBJECT_ID": "1993-036AKH", "EPOCH": "2025-12-11T04:55:48.885888", "MEAN_MOTION": 13.92796753, "ECCENTRICITY": 0.02419274, "INCLINATION": 74.0198, "RA_OF_ASC_NODE": 137.3683, "ARG_OF_PERICENTER": 307.011, "MEAN_ANOMALY": 232.6694, "EPHEMERIS_TYPE": 0, "CLASSIFICATION_TYPE": "U", "NORAD_CAT_ID": 35439, "ELEMENT_SET_NO": 999, "REV_AT_EPOCH": 83939, "BSTAR": 0.0020869419, "MEAN_MOTION_DOT": 3.412e-05, "MEAN_MOTION_DDOT": 0}, "tle": {"line1": "1 35439U 93036AKH 25345.20542692  .00003412  00000+0  20869-2 0  9990", "line2": "2 35439  74.0198 137.3683 0241927 307.0110 232.6694 13.92796753839399"}}, "geometry": {"type": "Point", "coordinates": [140.92618859854517, 29.065666571678044]}}, {"type": "Feature", "properties": {"norad_id": 35440, "name": "COSMOS 2251 DEB", "group": "cosmos-2251-debris", "lat": -32.176167308686644, "lon": 34.64915690652609, "alt_km": 702.4114185560966, "timestamp": "2025-12-14T11:29:50.456384+00:00", "meta": {"OBJECT_NAME": "COSMOS 2251 DEB", "OBJECT_ID": "1993-036AKJ", "EPOCH": "2025-12-10T08:26:45.842208", "MEAN_MOTION": 14.68793955, "ECCENTRICITY": 0.00692048, "INCLINATION": 74.0146, "RA_OF_ASC_NODE": 212.2531, "ARG_OF_PERICENTER": 353.6751, "MEAN_ANOMALY": 6.3537, "EPHEMERIS_TYPE": 0, "CLASSIFICATION_TYPE": "U", "NORAD_CAT_ID": 35440, "ELEMENT_SET_NO": 999, "REV_AT_EPOCH": 68730, "BSTAR": 0.0006737672, "MEAN_MOTION_DOT": 4.046e-05, "MEAN_MOTION_DDOT": 0}, "tle": {"line1": "1 35440U 93036AKJ 25344.35191947  .00004046  00000+0  67377-3 0  9990", "line2": "2 35440  74.0146 212.2531 0069204 353.6751   6.3537 14.68793955687302"}}, "geometry": {"type": "Point", "coordinates": [34.64915690652609, -32.176167308686644]}}, {"type": "Feature", "properties": {"norad_id": 35441, "name": "COSMOS 2251 DEB", "group": "cosmos-2251-debris", "lat": 48.70429113260728, "lon": 95.8978484647142, "alt_km": 667.8955457211996, "timestamp": "2025-12-14T11:29:50.456395+00:00", "meta": {"OBJECT_NAME": "COSMOS 2251 DEB", "OBJECT_ID": "1993-036AKK", "EPOCH": "2025-12-13T13:34:08.802624", "MEAN_MOTION": 14.6261606, "ECCENTRICITY": 0.00367072, "INCLINATION": 74.1347, "RA_OF_ASC_NODE": 296.5281, "ARG_OF_PERICENTER": 193.0341, "MEAN_ANOMALY": 166.9882, "EPHEMERIS_TYPE": 0, "CLASSIFICATION_TYPE": "U", "NORAD_CAT_ID": 35441, "ELEMENT_SET_NO": 999, "REV_AT_EPOCH": 87442, "BSTAR": 0.001914464, "MEAN_MOTION_DOT": 9.809e-05, "MEAN_MOTION_DDOT": 0}, "tle": {"line1": "1 35441U 93036AKK 25347.56537966  .00009809  00000+0  19145-2 0  9993", "line2": "2 35441  74.1347 296.5281 0036707 193.0341 166.9882 14.62616060874429"}}, "geometry": {"type": "Point", "coordinates": [95.8978484647142, 48.70429113260728]}}]}